NORAD_CAT_ID,OBJECT_NAME,OBJECT_TYPE,EPOCH,MEAN_MOTION,ECCENTRICITY,INCLINATION,RA_OF_ASC_NODE,ARG_OF_PERICENTER,MEAN_ANOMALY,BSTAR,MEAN_MOTION_DOT,MEAN_MOTION_DDOT,TLE_LINE0,TLE_LINE1,TLE_LINE2,SEMIMAJOR_AXIS,PERIOD,APOGEE,PERIGEE,DECAYED
51802.0,STARLINK-3557,PAYLOAD,2022-12-22 22:12:04,15.08843648,0.0002441,53.2137,213.8738,47.5651,312.5548,0.00016173,2.287e-05,0.0,0 STARLINK-3557,1 51802U 22017AL  22356.92505500  .00002287  00000-0  16173-3 0  9992,2 51802  53.2137 213.8738 0002441  47.5651 312.5548 15.08843648 46870,6917.869000000002,95.437,541.423,538.0459999999998,0.0
51802.0,STARLINK-3557,PAYLOAD,2022-12-23 20:27:28,15.08852729,0.0002489,53.2134,209.7106,49.158,310.9627,0.00021918,3.203e-05,0.0,0 STARLINK-3557,1 51802U 22017AL  22357.85240815  .00003203  00000-0  21918-3 0  9992,2 51802  53.2134 209.7106 0002489  49.1580 310.9627 15.08852729 47018,6917.840999999999,95.437,541.428,537.985,0.0
51802.0,STARLINK-3557,PAYLOAD,2022-12-23 23:38:14,15.08853898,0.00025,53.2134,209.1157,48.9954,311.1254,0.00022365,3.274e-05,0.0,0 STARLINK-3557,1 51802U 22017AL  22357.98488685  .00003274  00000-0  22365-3 0  9990,2 51802  53.2134 209.1157 0002500  48.9954 311.1254 15.08853898 47033,6917.8380000000025,95.437,541.432,537.9730000000002,0.0
51802.0,STARLINK-3557,PAYLOAD,2022-12-24 07:35:09,15.08848055,0.0002523,53.2134,207.6289,48.8674,311.2536,8.697799999999999e-05,1.096e-05,0.0,0 STARLINK-3557,1 51802U 22017AL  22358.31608720  .00001096  00000-0  86978-4 0  9993,2 51802  53.2134 207.6289 0002523  48.8674 311.2536 15.08848055 47083,6917.856,95.437,541.466,537.975,0.0
51802.0,STARLINK-3557,PAYLOAD,2022-12-24 20:18:15,15.08844209,0.000253,53.2139,205.2499,49.6222,310.4991,8.7855e-05,1.11e-05,0.0,0 STARLINK-3557,1 51802U 22017AL  22358.84600820  .00001110  00000-0  87855-4 0  9996,2 51802  53.2139 205.2499 0002530  49.6222 310.4991 15.08844209 47163,6917.868,95.437,541.4830000000002,537.982,0.0
51802.0,STARLINK-3557,PAYLOAD,2022-12-25 07:25:56,15.08847259,0.0002547,53.2142,203.1683,50.5885,309.5333,0.00010157,1.329e-05,0.0,0 STARLINK-3557,1 51802U 22017AL  22359.30968520  .00001329  00000-0  10157-3 0  9994,2 51802  53.2142 203.1683 0002547  50.5885 309.5333 15.08847259 47238,6917.858,95.437,541.485,537.961,0.0
51802.0,STARLINK-3557,PAYLOAD,2022-12-25 13:47:29,15.08842752,0.0002578,53.2142,201.9792,51.8618,308.2607,-1.8619e-05,-5.85e-06,0.0,0 STARLINK-3557,1 51802U 22017AL  22359.57464692 -.00000585  00000-0 -18619-4 0  9991,2 51802  53.2142 201.9792 0002578  51.8618 308.2607 15.08842752 47274,6917.871999999999,95.437,541.52,537.9540000000002,0.0
51802.0,STARLINK-3557,PAYLOAD,2022-12-25 23:19:49,15.08834099,0.0002557,53.2153,200.1945,52.3066,307.8158,-9.2823e-05,-1.765e-05,0.0,0 STARLINK-3557,1 51802U 22017AL  22359.97209605 -.00001765  00000-0 -92823-4 0  9996,2 51802  53.2153 200.1945 0002557  52.3066 307.8158 15.08834099 47335,6917.898,95.438,541.5319999999998,537.995,0.0
51802.0,STARLINK-3557,PAYLOAD,2022-12-26 13:38:17,15.08834998,0.0002522,53.2156,197.5185,51.7484,308.3735,1.5623e-05,-4e-07,0.0,0 STARLINK-3557,1 51802U 22017AL  22360.56825404 -.00000040  00000-0  15623-4 0  9991,2 51802  53.2156 197.5185 0002522  51.7484 308.3735 15.08834998 47427,6917.896,95.438,541.505,538.016,0.0
51802.0,STARLINK-3557,PAYLOAD,2022-12-26 19:59:49,15.08836795,0.0002536,53.2155,196.3291,52.1688,307.9533,2.969e-05,1.84e-06,0.0,0 STARLINK-3557,1 51802U 22017AL  22360.83321343  .00000184  00000-0  29690-4 0  9991,2 51802  53.2155 196.3291 0002536  52.1688 307.9533 15.08836795 47469,6917.89,95.438,541.51,538.001,0.0
51802.0,STARLINK-3557,PAYLOAD,2022-12-26 23:10:35,15.08837248,0.0002554,53.2155,195.7344,52.7215,307.401,3.4382e-05,2.59e-06,0.0,0 STARLINK-3557,1 51802U 22017AL  22360.96569323  .00000259  00000-0  34382-4 0  9994,2 51802  53.2155 195.7344 0002554  52.7215 307.4010 15.08837248 47484,6917.889,95.438,541.521,537.987,0.0
51802.0,STARLINK-3557,PAYLOAD,2022-12-27 13:29:04,15.08835876,0.000247,53.2152,193.0578,50.2401,309.8809,0.0001131,1.512e-05,0.0,0 STARLINK-3557,1 51802U 22017AL  22361.56185224  .00001512  00000-0  11310-3 0  9993,2 51802  53.2152 193.0578 0002470  50.2401 309.8809 15.08835876 47575,6917.893,95.438,541.467,538.049,0.0
51802.0,STARLINK-3557,PAYLOAD,2022-12-27 16:39:50,15.088393,0.0002487,53.2149,192.4628,50.6579,309.4633,0.00013967,1.935e-05,0.0,0 STARLINK-3557,1 51802U 22017AL  22361.69432982  .00001935  00000-0  13967-3 0  9992,2 51802  53.2149 192.4628 0002487  50.6579 309.4633 15.08839300 47597,6917.8830000000025,95.438,541.4680000000002,538.0269999999998,0.0
51802.0,STARLINK-3557,PAYLOAD,2022-12-28 11:44:27,15.08839699,0.0002538,53.2148,188.8943,52.2619,307.8602,0.00011684,1.572e-05,0.0,0 STARLINK-3557,1 51802U 22017AL  22362.48921169  .00001572  00000-0  11684-3 0  9991,2 51802  53.2148 188.8943 0002538  52.2619 307.8602 15.08839699 47718,6917.880999999999,95.438,541.502,537.991,0.0
51802.0,STARLINK-3557,PAYLOAD,2022-12-28 14:55:14,15.08835665,0.0002512,53.215,188.2988,51.1385,308.9831,4.8816e-05,4.88e-06,0.0,0 STARLINK-3557,1 51802U 22017AL  22362.62169654  .00000488  00000-0  48816-4 0  9993,2 51802  53.2150 188.2988 0002512  51.1385 308.9831 15.08835665 47731,6917.894,95.438,541.496,538.021,0.0
51802.0,STARLINK-3557,PAYLOAD,2022-12-29 11:35:15,15.08835924,0.0002491,53.2149,184.4326,54.2073,305.915,1.6832e-05,-2.1e-07,0.0,0 STARLINK-3557,1 51802U 22017AL  22363.48282016 -.00000021  00000-0  16832-4 0  9993,2 51802  53.2149 184.4326 0002491  54.2073 305.9150 15.08835924 47860,6917.893,95.438,541.481,538.035,0.0
51802.0,STARLINK-3557,PAYLOAD,2022-12-30 11:26:02,15.08838774,0.0002525999999999,53.215,179.9726,53.8015,306.321,0.00012373,1.681e-05,0.0,0 STARLINK-3557,1 51802U 22017AL  22364.47641541  .00001681  00000-0  12373-3 0  9992,2 51802  53.2150 179.9726 0002526  53.8015 306.3210 15.08838774 48011,6917.884,95.438,541.497,538.002,0.0
51802.0,STARLINK-3557,PAYLOAD,2022-12-31 04:55:16,15.08848742,0.0002529999999999,53.2152,176.7016,55.0255,305.0975,0.00018595,2.673e-05,0.0,0 STARLINK-3557,1 51802U 22017AL  22365.20504808  .00002673  00000-0  18595-3 0  9992,2 51802  53.2152 176.7016 0002530  55.0255 305.0975 15.08848742 48127,6917.854,95.437,541.469,537.9680000000002,0.0
51802.0,STARLINK-3557,PAYLOAD,2022-12-31 09:41:25,15.08851714,0.0002546,53.2152,175.8095,55.2,304.9231,0.00020392,2.9600000000000005e-05,0.0,0 STARLINK-3557,1 51802U 22017AL  22365.40376557  .00002960  00000-0  20392-3 0  9999,2 51802  53.2152 175.8095 0002546  55.2000 304.9231 15.08851714 48150,6917.845,95.437,541.471,537.948,0.0
51802.0,STARLINK-3557,PAYLOAD,2022-12-31 17:38:21,15.08843551,0.0002663999999999,53.2155,174.3235,54.1297,305.9942,9.3799e-05,1.205e-05,0.0,0 STARLINK-3557,1 51802U 22017AL  22365.73497274  .00001205  00000-0  93799-4 0  9998,2 51802  53.2155 174.3235 0002664  54.1297 305.9942 15.08843551 48206,6917.87,95.437,541.577,537.8919999999998,0.0
51802.0,STARLINK-3557,PAYLOAD,2023-01-01 11:07:35,15.08842861,0.0002544,53.2143,171.0516,57.3743,302.7494,3.3515e-05,2.45e-06,0.0,0 STARLINK-3557,1 51802U 22017AL  23001.46361075  .00000245  00000-0  33515-4 0  9998,2 51802  53.2143 171.0516 0002544  57.3743 302.7494 15.08842861 48319,6917.871999999999,95.437,541.497,537.977,0.0
51802.0,STARLINK-3557,PAYLOAD,2023-01-01 17:29:08,15.08837973,0.0002516,53.2143,169.8616,57.6264,302.4971,-2.4469e-05,-6.78e-06,0.0,0 STARLINK-3557,1 51802U 22017AL  23001.72857354 -.00000678  00000-0 -24469-4 0  9997,2 51802  53.2143 169.8616 0002516  57.6264 302.4971 15.08837973 48354,6917.887,95.438,541.492,538.011,0.0
51802.0,STARLINK-3557,PAYLOAD,2023-01-02 10:58:22,15.08848283,0.0002533,53.2154,166.5914,56.3006,303.8227,1.6309000000000006e-05,-2.9e-07,0.0,0 STARLINK-3557,1 51802U 22017AL  23002.45720875 -.00000029  00000-0  16309-4 0  9998,2 51802  53.2154 166.5914 0002533  56.3006 303.8227 15.08848283 48467,6917.855,95.437,541.472,537.9680000000002,0.0
51802.0,STARLINK-3557,PAYLOAD,2023-01-02 12:33:46,15.08844815,0.0002484999999999,53.2152,166.2937,56.4124,303.7105,5.3983e-05,5.71e-06,0.0,0 STARLINK-3557,1 51802U 22017AL  23002.52344971  .00000571  00000-0  53983-4 0  9995,2 51802  53.2152 166.2937 0002485  56.4124 303.7105 15.08844815 48477,6917.866,95.437,541.45,538.012,0.0
51802.0,STARLINK-3557,PAYLOAD,2023-01-02 17:19:55,15.0884956,0.0002524,53.2152,165.4014,57.0501,303.0734,4.197e-05,3.8e-06,0.0,0 STARLINK-3557,1 51802U 22017AL  23002.72216608  .00000380  00000-0  41970-4 0  9993,2 51802  53.2152 165.4014 0002524  57.0501 303.0734 15.08849560 48501,6917.851,95.437,541.462,537.97,0.0
51802.0,STARLINK-3557,PAYLOAD,2023-01-03 17:10:42,15.08838196,0.0002493,53.2154,160.9411,55.9334,304.1894,0.00013394,1.844e-05,0.0,0 STARLINK-3557,1 51802U 22017AL  23003.71577343  .00001844  00000-0  13394-3 0  9993,2 51802  53.2154 160.9411 0002493  55.9334 304.1894 15.08838196 48658,6917.886,95.438,541.476,538.026,0.0
51802.0,STARLINK-3557,PAYLOAD,2023-01-04 09:04:33,15.08846954,0.0002529999999999,53.2154,157.9673,56.3223,303.801,0.00012244,1.661e-05,0.0,0 STARLINK-3557,1 51802U 22017AL  23004.37816836  .00001661  00000-0  12244-3 0  9999,2 51802  53.2154 157.9673 0002530  56.3223 303.8010 15.08846954 48756,6917.859,95.437,541.474,537.974,0.0
51802.0,STARLINK-3557,PAYLOAD,2023-01-04 17:01:29,15.08844509,0.0002514,53.2155,156.48,56.6519,303.4713,5.1028e-05,5.24e-06,0.0,0 STARLINK-3557,1 51802U 22017AL  23004.70937181  .00000524  00000-0  51028-4 0  9994,2 51802  53.2155 156.4800 0002514  56.6519 303.4713 15.08844509 48802,6917.8669999999975,95.437,541.471,537.992,0.0
51802.0,STARLINK-3557,PAYLOAD,2023-01-05 02:33:48,15.08842215,0.0002526999999999,53.2164,154.6932,50.3289,309.7925,0.00011421,1.53e-05,0.0,0 STARLINK-3557,1 51802U 22017AL  23005.10681154  .00001530  00000-0  11421-3 0  9995,2 51802  53.2164 154.6932 0002527  50.3289 309.7925 15.08842215 48869,6917.874,95.437,541.487,537.99,0.0
